{
  "type": "FeatureCollection",
  "features": [
    {
      "type": "Feature",
      "properties": {
        "norad_id": 66647,
        "name": "COSMOS 2597 (RODNIK-S 22)",
        "group": "last-30-days",
        "lat": 72.81545986468558,
        "lon": -56.48727989895776,
        "alt_km": 1497.326827083275,
        "timestamp": "2025-12-25T20:42:37.406593+00:00",
        "meta_object_name": "COSMOS 2597 (RODNIK-S 22)",
        "meta_object_id": "2025-273A",
        "meta_epoch": "2025-12-25T06:46:35.831424",
        "meta_mean_motion": 12.41952291,
        "meta_eccentricity": 0.00075984,
        "meta_inclination": 82.4994,
        "meta_ra_of_asc_node": 278.6611,
        "meta_arg_of_pericenter": 256.5288,
        "meta_mean_anomaly": 103.4945,
        "meta_ephemeris_type": 0,
        "meta_classification_type": "U",
        "meta_norad_cat_id": 66647,
        "meta_element_set_no": 999,
        "meta_rev_at_epoch": 369,
        "meta_bstar": 0.00025823157,
        "meta_mean_motion_dot": 4.5e-07,
        "meta_mean_motion_ddot": 0,
        "tle_line1": "1 66647U 25273A   25359.28235916  .00000045  00000+0  25823-3 0  9999",
        "tle_line2": "2 66647  82.4994 278.6611 0007598 256.5288 103.4945 12.41952291  3693"
      },
      "geometry": {
        "type": "Point",
        "coordinates": [
          -56.48727989895776,
          72.81545986468558
        ]
      }
    },
    {
      "type": "Feature",
      "properties": {
        "norad_id": 66648,
        "name": "COSMOS 2598 (RODNIK-S 23)",
        "group": "last-30-days",
        "lat": 9.169261509785226,
        "lon": 97.06810634440093,
        "alt_km": 1489.0746608771615,
        "timestamp": "2025-12-25T20:42:37.406616+00:00",
        "meta_object_name": "COSMOS 2598 (RODNIK-S 23)",
        "meta_object_id": "2025-273B",
        "meta_epoch": "2025-12-25T06:16:30.722880",
        "meta_mean_motion": 12.43233634,
        "meta_eccentricity": 0.00082009,
        "meta_inclination": 82.5033,
        "meta_ra_of_asc_node": 278.6599,
        "meta_arg_of_pericenter": 206.9895,
        "meta_mean_anomaly": 153.076,
        "meta_ephemeris_type": 0,
        "meta_classification_type": "U",
        "meta_norad_cat_id": 66648,
        "meta_element_set_no": 999,
        "meta_rev_at_epoch": 369,
        "meta_bstar": 0.00018018855,
        "meta_mean_motion_dot": 3.5e-07,
        "meta_mean_motion_ddot": 0,
        "tle_line1": "1 66648U 25273B   25359.26146670  .00000035  00000+0  18019-3 0  9994",
        "tle_line2": "2 66648  82.5033 278.6599 0008200 206.9895 153.0760 12.43233634  3699"
      },
      "geometry": {
        "type": "Point",
        "coordinates": [
          97.06810634440093,
          9.169261509785226
        ]
      }
    },
    {
      "type": "Feature",
      "properties": {
        "norad_id": 66649,
        "name": "COSMOS 2599 (RODNIK-S 24)",
        "group": "last-30-days",
        "lat": 17.88525753388745,
        "lon": -79.22864160250789,
        "alt_km": 1505.3823157200832,
        "timestamp": "2025-12-25T20:42:37.406645+00:00",
        "meta_object_name": "COSMOS 2599 (RODNIK-S 24)",
        "meta_object_id": "2025-273C",
        "meta_epoch": "2025-12-25T07:04:15.559392",
        "meta_mean_motion": 12.41152253,
        "meta_eccentricity": 0.00063406,
        "meta_inclination": 82.505,
        "meta_ra_of_asc_node": 278.6887,
        "meta_arg_of_pericenter": 244.5156,
        "meta_mean_anomaly": 115.5267,
        "meta_ephemeris_type": 0,
        "meta_classification_type": "U",
        "meta_norad_cat_id": 66649,
        "meta_element_set_no": 999,
        "meta_rev_at_epoch": 369,
        "meta_bstar": 0.00011289766,
        "meta_mean_motion_dot": 2.5e-07,
        "meta_mean_motion_ddot": 0,
        "tle_line1": "1 66649U 25273C   25359.29462453  .00000025  00000+0  11290-3 0  9991",
        "tle_line2": "2 66649  82.5050 278.6887 0006340 244.5156 115.5267 12.41152253  3690"
      },
      "geometry": {
        "type": "Point",
        "coordinates": [
          -79.22864160250789,
          17.88525753388745
        ]
      }
    },
    {
      "type": "Feature",
      "properties": {
        "norad_id": 66650,
        "name": "BEE-1000",
        "group": "last-30-days",
        "lat": 19.119961291474965,
        "lon": 109.51322648555116,
        "alt_km": 587.2257826817804,
        "timestamp": "2025-12-25T20:42:37.406670+00:00",
        "meta_object_name": "BEE-1000",
        "meta_object_id": "2025-274A",
        "meta_epoch": "2025-12-24T18:14:01.824576",
        "meta_mean_motion": 14.91700346,
        "meta_eccentricity": 0.0011078,
        "meta_inclination": 97.7405,
        "meta_ra_of_asc_node": 285.7275,
        "meta_arg_of_pericenter": 207.2837,
        "meta_mean_anomaly": 152.7801,
        "meta_ephemeris_type": 0,
        "meta_classification_type": "U",
        "meta_norad_cat_id": 66650,
        "meta_element_set_no": 999,
        "meta_rev_at_epoch": 419,
        "meta_bstar": 0.00017291328,
        "meta_mean_motion_dot": 1.685e-05,
        "meta_mean_motion_ddot": 0,
        "tle_line1": "1 66650U 25274A   25358.75974334  .00001685  00000+0  17291-3 0  9990",
        "tle_line2": "2 66650  97.7405 285.7275 0011078 207.2837 152.7801 14.91700346  4192"
      },
      "geometry": {
        "type": "Point",
        "coordinates": [
          109.51322648555116,
          19.119961291474965
        ]
      }
    },
    {
      "type": "Feature",
      "properties": {
        "norad_id": 66651,
        "name": "2025-274B",
        "group": "last-30-days",
        "lat": 6.65374480239417,
        "lon": 107.72328724534852,
        "alt_km": 587.2566790912961,
        "timestamp": "2025-12-25T20:42:37.406695+00:00",
        "meta_object_name": "2025-274B",
        "meta_object_id": "2025-274B",
        "meta_epoch": "2025-12-24T18:10:51.621888",
        "meta_mean_motion": 14.91882625,
        "meta_eccentricity": 0.00112751,
        "meta_inclination": 97.7402,
        "meta_ra_of_asc_node": 285.7287,
        "meta_arg_of_pericenter": 205.3112,
        "meta_mean_anomaly": 154.7556,
        "meta_ephemeris_type": 0,
        "meta_classification_type": "U",
        "meta_norad_cat_id": 66651,
        "meta_element_set_no": 999,
        "meta_rev_at_epoch": 419,
        "meta_bstar": 0.00044642695,
        "meta_mean_motion_dot": 4.462e-05,
        "meta_mean_motion_ddot": 0,
        "tle_line1": "1 66651U 25274B   25358.75754192  .00004462  00000+0  44643-3 0  9996",
        "tle_line2": "2 66651  97.7402 285.7287 0011275 205.3112 154.7556 14.91882625  4197"
      },
      "geometry": {
        "type": "Point",
        "coordinates": [
          107.72328724534852,
          6.65374480239417
        ]
      }
    },
    {
      "type": "Feature",
      "properties": {
        "norad_id": 66652,
        "name": "2025-274C",
        "group": "last-30-days",
        "lat": -5.3748045072422705,
        "lon": 106.08778472937999,
        "alt_km": 588.5312835619516,
        "timestamp": "2025-12-25T20:42:37.406708+00:00",
        "meta_object_name": "2025-274C",
        "meta_object_id": "2025-274C",
        "meta_epoch": "2025-12-25T05:23:43.888128",
        "meta_mean_motion": 14.91972868,
        "meta_eccentricity": 0.00108458,
        "meta_inclination": 97.7407,
        "meta_ra_of_asc_node": 286.1943,
        "meta_arg_of_pericenter": 210.5408,
        "meta_mean_anomaly": 149.5181,
        "meta_ephemeris_type": 0,
        "meta_classification_type": "U",
        "meta_norad_cat_id": 66652,
        "meta_element_set_no": 999,
        "meta_rev_at_epoch": 426,
        "meta_bstar": 0.00036208908,
        "meta_mean_motion_dot": 3.616e-05,
        "meta_mean_motion_ddot": 0,
        "tle_line1": "1 66652U 25274C   25359.22481352  .00003616  00000+0  36209-3 0  9994",
        "tle_line2": "2 66652  97.7407 286.1943 0010845 210.5408 149.5181 14.91972868  4268"
      },
      "geometry": {
        "type": "Point",
        "coordinates": [
          106.08778472937999,
          -5.3748045072422705
        ]
      }
    },
    {
      "type": "Feature",
      "properties": {
        "norad_id": 66653,
        "name": "2025-274D",
        "group": "last-30-days",
        "lat": -5.715950103412107,
        "lon": 106.04060124532425,
        "alt_km": 587.7749501631888,
        "timestamp": "2025-12-25T20:42:37.406729+00:00",
        "meta_object_name": "2025-274D",
        "meta_object_id": "2025-274D",
        "meta_epoch": "2025-12-25T05:23:38.067360",
        "meta_mean_motion": 14.91963607,
        "meta_eccentricity": 0.00118336,
        "meta_inclination": 97.7405,
        "meta_ra_of_asc_node": 286.1939,
        "meta_arg_of_pericenter": 207.1296,
        "meta_mean_anomaly": 152.9306,
        "meta_ephemeris_type": 0,
        "meta_classification_type": "U",
        "meta_norad_cat_id": 66653,
        "meta_element_set_no": 999,
        "meta_rev_at_epoch": 426,
        "meta_bstar": 0.00028057835,
        "meta_mean_motion_dot": 2.789e-05,
        "meta_mean_motion_ddot": 0,
        "tle_line1": "1 66653U 25274D   25359.22474615  .00002789  00000+0  28058-3 0  9992",
        "tle_line2": "2 66653  97.7405 286.1939 0011833 207.1296 152.9306 14.91963607  4265"
      },
      "geometry": {
        "type": "Point",
        "coordinates": [
          106.04060124532425,
          -5.715950103412107
        ]
      }
    }
  ]
}